[{"OBJECT_NAME":"TUSUR GO (RS78S)","OBJECT_ID":"2024-199AZ","EPOCH":"2026-03-09T22:48:41.341536","MEAN_MOTION":15.7089308,"ECCENTRICITY":0.00036127,"INCLINATION":97.3018,"RA_OF_ASC_NODE":306.7757,"ARG_OF_PERICENTER":269.724,"MEAN_ANOMALY":90.3609,"EPHEMERIS_TYPE":0,"CLASSIFICATION_TYPE":"U","NORAD_CAT_ID":61782,"ELEMENT_SET_NO":999,"REV_AT_EPOCH":11926,"BSTAR":0.0013446465,"MEAN_MOTION_DOT":0.00170473,"MEAN_MOTION_DDOT":0},{"OBJECT_NAME":"STARLINK-11667 [DTC]","OBJECT_ID":"2025-075C","EPOCH":"2026-03-09T08:34:20.321760","MEAN_MOTION":15.70862017,"ECCENTRICITY":0.00017572,"INCLINATION":43.0008,"RA_OF_ASC_NODE":156.047,"ARG_OF_PERICENTER":285.1548,"MEAN_ANOMALY":74.9126,"EPHEMERIS_TYPE":0,"CLASSIFICATION_TYPE":"U","NORAD_CAT_ID":63550,"ELEMENT_SET_NO":999,"REV_AT_EPOCH":5319,"BSTAR":0.00081340744,"MEAN_MOTION_DOT":0.00105354,"MEAN_MOTION_DDOT":0}]
